CCSDS_OMM_VERS,COMMENT,CREATION_DATE,ORIGINATOR,OBJECT_NAME,OBJECT_ID,CENTER_NAME,REF_FRAME,TIME_SYSTEM,MEAN_ELEMENT_THEORY,EPOCH,MEAN_MOTION,ECCENTRICITY,INCLINATION,RA_OF_ASC_NODE,ARG_OF_PERICENTER,MEAN_ANOMALY,EPHEMERIS_TYPE,CLASSIFICATION_TYPE,NORAD_CAT_ID,ELEMENT_SET_NO,REV_AT_EPOCH,BSTAR,MEAN_MOTION_DOT,MEAN_MOTION_DDOT,SEMIMAJOR_AXIS,PERIOD,APOAPSIS,PERIAPSIS,OBJECT_TYPE,RCS_SIZE,COUNTRY_CODE,LAUNCH_DATE,SITE,DECAY_DATE,FILE,GP_ID,TLE_LINE0,TLE_LINE1,TLE_LINE2
"2.0","GENERATED VIA SPACE-TRACK.ORG API","2020-09-16T22:26:10","18 SPCS","IRIDIUM 176","2019-002B","EARTH","TEME","UTC","SGP4","2020-09-16T18:32:21.045984","14.72250953","0.00023800","86.6141","151.0095","89.7002","270.4488","0","U","43923","999","9036","0.00001633600000","0.00000128","0.0000000000000","7032.028","97.809","655.566","652.219","PAYLOAD","LARGE","US","2019-01-11","AFWTR","","2825252","161505248","0 IRIDIUM 176","1 43923U 19002B   20260.77246581  .00000128  00000-0  16336-4 0  9997","2 43923  86.6141 151.0095 0002380  89.7002 270.4488 14.72250953 90368"
"2.0","GENERATED VIA SPACE-TRACK.ORG API","2020-09-16T23:28:41","18 SPCS","IRIDIUM 176","2019-002B","EARTH","TEME","UTC","SGP4","2020-09-16T10:22:58.942560","14.72251252","0.00023410","86.6140","151.1512","89.7883","270.3603","0","U","43923","999","9031","0.00001581800000","0.00000124","0.0000000000000","7032.027","97.809","655.538","652.246","PAYLOAD","LARGE","US","2019-01-11","AFWTR","","2825427","161528887","0 IRIDIUM 176","1 43923U 19002B   20260.43262665 +.00000124 +00000-0 +15818-4 0  9991","2 43923 086.6140 151.1512 0002341 089.7883 270.3603 14.72251252090312"
"2.0","GENERATED VIA SPACE-TRACK.ORG API","2020-09-16T23:28:41","18 SPCS","SL-18 DEB","1993-014BJ","EARTH","TEME","UTC","SGP4","2020-09-16T00:28:09.751584","14.81390199","0.00713290","75.7401","34.9529","353.0504","6.9685","0","U","35359","999","69569","0.00031895000000","0.00002586","0.0000000000000","7003.076","97.205","674.893","574.989","DEBRIS","SMALL","CIS","1993-03-25","PKMTR","","2825427","161522375","0 SL-18 DEB","1 35359U 93014BJ  20260.01955731 +.00002586 +00000-0 +31895-3 0  9993","2 35359 075.7401 034.9529 0071329 353.0504 006.9685 14.81390199695699"
"2.0","GENERATED VIA SPACE-TRACK.ORG API","2020-09-16T01:47:08","18 SPCS","IRIDIUM 176","2019-002B","EARTH","TEME","UTC","SGP4","2020-09-15T22:57:52.015392","14.72253546","0.00023270","86.6145","151.3499","89.2499","270.8985","0","U","43923","999","9024","0.00001599800000","0.00000126","0.0000000000000","7032.020","97.809","655.521","652.248","PAYLOAD","LARGE","US","2019-01-11","AFWTR","","2824434","161467410","0 IRIDIUM 176","1 43923U 19002B   20259.95685203 +.00000126 +00000-0 +15998-4 0  9994","2 43923 086.6145 151.3499 0002327 089.2499 270.8985 14.72253546090243"
"2.0","GENERATED VIA SPACE-TRACK.ORG API","2020-09-15T22:26:11","18 SPCS","IRIDIUM 176","2019-002B","EARTH","TEME","UTC","SGP4","2020-09-15T18:04:14.792736","14.72253529","0.00023280","86.6145","151.4350","89.3307","270.8177","0","U","43923","999","9021","0.00001574900000","0.00000124","0.0000000000000","7032.020","97.809","655.522","652.248","PAYLOAD","LARGE","US","2019-01-11","AFWTR","","2824098","161441996","0 IRIDIUM 176","1 43923U 19002B   20259.75294899  .00000124  00000-0  15749-4 0  9991","2 43923  86.6145 151.4350 0002328  89.3307 270.8177 14.72253529 90211"
"2.0","GENERATED VIA SPACE-TRACK.ORG API","2020-09-15T19:28:25","18 SPCS","IRIDIUM 176","2019-002B","EARTH","TEME","UTC","SGP4","2020-09-15T05:01:15.534048","14.72253442","0.00023220","86.6146","151.6620","89.2085","270.9398","0","U","43923","999","9013","0.00001525800000","0.00000121","0.0000000000000","7032.020","97.809","655.518","652.252","PAYLOAD","LARGE","US","2019-01-11","AFWTR","","2823991","161436972","0 IRIDIUM 176","1 43923U 19002B   20259.20920757 +.00000121 +00000-0 +15258-4 0  9992","2 43923 086.6146 151.6620 0002322 089.2085 270.9398 14.72253442090131"
"2.0","GENERATED VIA SPACE-TRACK.ORG API","2020-09-15T06:36:11","18 SPCS","SL-18 DEB","1993-014BJ","EARTH","TEME","UTC","SGP4","2020-09-15T01:46:38.776224","14.81385464","0.00713160","75.7400","36.6246","355.4868","4.5666","0","U","35359","999","69621","0.00031528000000","0.00002555","0.0000000000000","7003.091","97.206","674.899","575.013","DEBRIS","SMALL","CIS","1993-03-25","PKMTR","","2823494","161411349","0 SL-18 DEB","1 35359U 93014BJ  20259.07405991  .00002555  00000-0  31528-3 0  9994","2 35359  75.7400  36.6246 0071316 355.4868   4.5666 14.81385464696219"
"2.0","GENERATED VIA SPACE-TRACK.ORG API","2020-09-15T01:20:05","18 SPCS","IRIDIUM 176","2019-002B","EARTH","TEME","UTC","SGP4","2020-09-14T17:36:08.679456","14.72253367","0.00023170","86.6146","151.8605","89.1318","271.0165","0","U","43923","999","9006","0.00001491400000","0.00000119","0.0000000000000","7032.020","97.809","655.514","652.256","PAYLOAD","LARGE","US","2019-01-11","AFWTR","","2823279","161404117","0 IRIDIUM 176","1 43923U 19002B   20258.73343379 +.00000119 +00000-0 +14914-4 0  9993","2 43923 086.6146 151.8605 0002317 089.1318 271.0165 14.72253367090060"
"2.0","GENERATED VIA SPACE-TRACK.ORG API","2020-09-14T14:16:09","18 SPCS","IRIDIUM 176","2019-002B","EARTH","TEME","UTC","SGP4","2020-09-14T11:04:39.047520","14.72253293","0.00023150","86.6147","151.9740","89.1258","271.0224","0","U","43923","999","9002","0.00001418900000","0.00000114","0.0000000000000","7032.020","97.809","655.513","652.257","PAYLOAD","LARGE","US","2019-01-11","AFWTR","","2822843","161356648","0 IRIDIUM 176","1 43923U 19002B   20258.46156305  .00000114  00000-0  14189-4 0  9993","2 43923  86.6147 151.9740 0002315  89.1258 271.0224 14.72253293 90023"
"2.0","GENERATED VIA SPACE-TRACK.ORG API","2020-09-14T17:56:55","18 SPCS","SL-18 DEB","1993-014BJ","EARTH","TEME","UTC","SGP4","2020-09-14T03:05:07.554624","14.81380499","0.00713070","75.7398","38.2963","357.9304","2.1576","0","U","35359","999","69541","0.00030542000000","0.00002474","0.0000000000000","7003.106","97.206","674.909","575.034","DEBRIS","SMALL","CIS","1993-03-25","PKMTR","","2823152","161375190","0 SL-18 DEB","1 35359U 93014BJ  20258.12855966 +.00002474 +00000-0 +30542-3 0  9995","2 35359 075.7398 038.2963 0071307 357.9304 002.1576 14.81380499695419"
"2.0","GENERATED VIA SPACE-TRACK.ORG API","2020-09-14T01:59:49","18 SPCS","IRIDIUM 176","2019-002B","EARTH","TEME","UTC","SGP4","2020-09-13T18:45:54.964224","14.72253180","0.00023120","86.6148","152.2576","89.0670","271.0812","0","U","43923","999","8992","0.00001366900000","0.00000111","0.0000000000000","7032.021","97.809","655.512","652.260","PAYLOAD","LARGE","US","2019-01-11","AFWTR","","2822483","161349004","0 IRIDIUM 176","1 43923U 19002B   20257.78188616 +.00000111 +00000-0 +13669-4 0  9996","2 43923 086.6148 152.2576 0002312 089.0670 271.0812 14.72253180089924"
"2.0","GENERATED VIA SPACE-TRACK.ORG API","2020-09-13T14:36:09","18 SPCS","IRIDIUM 176","2019-002B","EARTH","TEME","UTC","SGP4","2020-09-13T10:36:32.921280","14.72253106","0.00023090","86.6148","152.3994","89.0536","271.0946","0","U","43923","999","8987","0.00001333500000","0.00000109","0.0000000000000","7032.021","97.809","655.510","652.262","PAYLOAD","LARGE","US","2019-01-11","AFWTR","","2821720","161292418","0 IRIDIUM 176","1 43923U 19002B   20257.44204770  .00000109  00000-0  13335-4 0  9996","2 43923  86.6148 152.3994 0002309  89.0536 271.0946 14.72253106 89876"
"2.0","GENERATED VIA SPACE-TRACK.ORG API","2020-09-13T15:16:10","18 SPCS","SL-18 DEB","1993-014BJ","EARTH","TEME","UTC","SGP4","2020-09-13T09:15:21.402432","14.81377005","0.00713190","75.7398","39.6098","359.8560","0.2593","0","U","35359","999","69596","0.00030486000000","0.00002470","0.0000000000000","7003.117","97.206","674.928","575.037","DEBRIS","SMALL","CIS","1993-03-25","PKMTR","","2822027","161299344","0 SL-18 DEB","1 35359U 93014BJ  20257.38566438  .00002470  00000-0  30486-3 0  9998","2 35359  75.7398  39.6098 0071319 359.8560   0.2593 14.81377005695968"
"2.0","GENERATED VIA SPACE-TRACK.ORG API","2020-09-13T16:56:47","18 SPCS","IRIDIUM 176","2019-002B","EARTH","TEME","UTC","SGP4","2020-09-13T04:05:03.286752","14.72253077","0.00023030","86.6149","152.5129","89.0540","271.0941","0","U","43923","999","8983","0.00001377100000","0.00000112","0.0000000000000","7032.021","97.809","655.506","652.267","PAYLOAD","LARGE","US","2019-01-11","AFWTR","","2822150","161321028","0 IRIDIUM 176","1 43923U 19002B   20257.17017693 +.00000112 +00000-0 +13771-4 0  9990","2 43923 086.6149 152.5129 0002303 089.0540 271.0941 14.72253077089836"
"2.0","GENERATED VIA SPACE-TRACK.ORG API","2020-09-13T16:56:47","18 SPCS","SL-18 DEB","1993-014BJ","EARTH","TEME","UTC","SGP4","2020-09-13T01:09:05.824512","14.81375345","0.00713230","75.7398","40.2069","0.7204","359.4071","0","U","35359","999","69525","0.00030275000000","0.00002452","0.0000000000000","7003.123","97.206","674.936","575.039","DEBRIS","SMALL","CIS","1993-03-25","PKMTR","","2822150","161314948","0 SL-18 DEB","1 35359U 93014BJ  20257.04798408 +.00002452 +00000-0 +30275-3 0  9991","2 35359 075.7398 040.2069 0071323 000.7204 359.4071 14.81375345695253"
"2.0","GENERATED VIA SPACE-TRACK.ORG API","2020-09-13T01:26:39","18 SPCS","IRIDIUM 176","2019-002B","EARTH","TEME","UTC","SGP4","2020-09-12T18:17:48.833664","14.72253008","0.00023030","86.6149","152.6831","89.1485","270.9996","0","U","43923","999","8977","0.00001357400000","0.00000110","0.0000000000000","7032.021","97.809","655.506","652.267","PAYLOAD","LARGE","US","2019-01-11","AFWTR","","2821313","161281156","0 IRIDIUM 176","1 43923U 19002B   20256.76237076 +.00000110 +00000-0 +13574-4 0  9992","2 43923 086.6149 152.6831 0002303 089.1485 270.9996 14.72253008089771"
